{
  "type": "FeatureCollection",
  "features": [
    {
      "type": "Feature",
      "properties": {
        "norad_id": 43823,
        "name": "GEO-KOMPSAT-2A",
        "group": "weather",
        "lat": -0.022865456532768214,
        "lon": 68.36194874639304,
        "alt_km": 35786.09234345418,
        "timestamp": "2025-12-26T13:39:18.603611+00:00",
        "meta_object_name": "GEO-KOMPSAT-2A",
        "meta_object_id": "2018-100A",
        "meta_epoch": "2025-12-25T12:13:38.614080",
        "meta_mean_motion": 1.00268534,
        "meta_eccentricity": 2.51e-05,
        "meta_inclination": 0.0434,
        "meta_ra_of_asc_node": 172.7377,
        "meta_arg_of_pericenter": 259.9479,
        "meta_mean_anomaly": 333.2359,
        "meta_ephemeris_type": 0,
        "meta_classification_type": "U",
        "meta_norad_cat_id": 43823,
        "meta_element_set_no": 999,
        "meta_rev_at_epoch": 2588,
        "meta_bstar": 0,
        "meta_mean_motion_dot": -3.22e-06,
        "meta_mean_motion_ddot": 0,
        "tle_line1": "1 43823U 18100A   25359.50947470 -.00000322  00000+0  00000+0 0  9996",
        "tle_line2": "2 43823   0.0434 172.7377 0000251 259.9479 333.2359  1.00268534 25880"
      },
      "geometry": {
        "type": "Point",
        "coordinates": [
          68.36194874639304,
          -0.022865456532768214
        ]
      }
    },
    {
      "type": "Feature",
      "properties": {
        "norad_id": 44387,
        "name": "METEOR-M2 2",
        "group": "weather",
        "lat": -35.68685460132048,
        "lon": -13.070978462837717,
        "alt_km": 818.2917513459097,
        "timestamp": "2025-12-26T13:39:18.603624+00:00",
        "meta_object_name": "METEOR-M2 2",
        "meta_object_id": "2019-038A",
        "meta_epoch": "2025-12-26T05:23:41.415360",
        "meta_mean_motion": 14.24297774,
        "meta_eccentricity": 0.00018038,
        "meta_inclination": 98.899,
        "meta_ra_of_asc_node": 340.1194,
        "meta_arg_of_pericenter": 122.5776,
        "meta_mean_anomaly": 237.5577,
        "meta_ephemeris_type": 0,
        "meta_classification_type": "U",
        "meta_norad_cat_id": 44387,
        "meta_element_set_no": 999,
        "meta_rev_at_epoch": 33667,
        "meta_bstar": 0.00021212354,
        "meta_mean_motion_dot": 4.44e-06,
        "meta_mean_motion_ddot": 0,
        "tle_line1": "1 44387U 19038A   25360.22478490  .00000444  00000+0  21212-3 0  9991",
        "tle_line2": "2 44387  98.8990 340.1194 0001803 122.5776 237.5577 14.24297774336673"
      },
      "geometry": {
        "type": "Point",
        "coordinates": [
          -13.070978462837717,
          -35.68685460132048
        ]
      }
    },
    {
      "type": "Feature",
      "properties": {
        "norad_id": 47719,
        "name": "ARKTIKA-M 1",
        "group": "weather",
        "lat": 35.33060415056332,
        "lon": 103.15014899895391,
        "alt_km": 17963.85480771349,
        "timestamp": "2025-12-26T13:39:18.603638+00:00",
        "meta_object_name": "ARKTIKA-M 1",
        "meta_object_id": "2021-016A",
        "meta_epoch": "2025-12-26T00:48:12.401568",
        "meta_mean_motion": 2.00630537,
        "meta_eccentricity": 0.72107999,
        "meta_inclination": 63.1768,
        "meta_ra_of_asc_node": 82.1795,
        "meta_arg_of_pericenter": 269.1717,
        "meta_mean_anomaly": 15.5344,
        "meta_ephemeris_type": 0,
        "meta_classification_type": "U",
        "meta_norad_cat_id": 47719,
        "meta_element_set_no": 999,
        "meta_rev_at_epoch": 3531,
        "meta_bstar": 0,
        "meta_mean_motion_dot": -4.1e-07,
        "meta_mean_motion_ddot": 0,
        "tle_line1": "1 47719U 21016A   25360.03347687 -.00000041  00000+0  00000+0 0  9996",
        "tle_line2": "2 47719  63.1768  82.1795 7210799 269.1717  15.5344  2.00630537 35311"
      },
      "geometry": {
        "type": "Point",
        "coordinates": [
          103.15014899895391,
          35.33060415056332
        ]
      }
    },
    {
      "type": "Feature",
      "properties": {
        "norad_id": 49008,
        "name": "FENGYUN 3E",
        "group": "weather",
        "lat": 62.213165555002384,
        "lon": -16.06397456853376,
        "alt_km": 820.0384244141815,
        "timestamp": "2025-12-26T13:39:18.603650+00:00",
        "meta_object_name": "FENGYUN 3E",
        "meta_object_id": "2021-062A",
        "meta_epoch": "2025-12-26T06:35:31.537248",
        "meta_mean_motion": 14.19882749,
        "meta_eccentricity": 9.95e-05,
        "meta_inclination": 98.748,
        "meta_ra_of_asc_node": 0.6353,
        "meta_arg_of_pericenter": 186.809,
        "meta_mean_anomaly": 173.3073,
        "meta_ephemeris_type": 0,
        "meta_classification_type": "U",
        "meta_norad_cat_id": 49008,
        "meta_element_set_no": 999,
        "meta_rev_at_epoch": 23204,
        "meta_bstar": 0.0002064012,
        "meta_mean_motion_dot": 3.94e-06,
        "meta_mean_motion_ddot": 0,
        "tle_line1": "1 49008U 21062A   25360.27467057  .00000394  00000+0  20640-3 0  9996",
        "tle_line2": "2 49008  98.7480   0.6353 0000995 186.8090 173.3073 14.19882749232049"
      },
      "geometry": {
        "type": "Point",
        "coordinates": [
          -16.06397456853376,
          62.213165555002384
        ]
      }
    },
    {
      "type": "Feature",
      "properties": {
        "norad_id": 51850,
        "name": "GOES 18",
        "group": "weather",
        "lat": 0.016377347905956654,
        "lon": 163.12619386680015,
        "alt_km": 35787.81633908784,
        "timestamp": "2025-12-26T13:39:18.603664+00:00",
        "meta_object_name": "GOES 18",
        "meta_object_id": "2022-021A",
        "meta_epoch": "2025-12-26T05:40:52.939776",
        "meta_mean_motion": 1.00271493,
        "meta_eccentricity": 4.704e-05,
        "meta_inclination": 0.0396,
        "meta_ra_of_asc_node": 175.3212,
        "meta_arg_of_pericenter": 136.205,
        "meta_mean_anomaly": 91.6758,
        "meta_ephemeris_type": 0,
        "meta_classification_type": "U",
        "meta_norad_cat_id": 51850,
        "meta_element_set_no": 999,
        "meta_rev_at_epoch": 485,
        "meta_bstar": 0,
        "meta_mean_motion_dot": 1.19e-06,
        "meta_mean_motion_ddot": 0,
        "tle_line1": "1 51850U 22021A   25360.23672384  .00000119  00000+0  00000+0 0  9996",
        "tle_line2": "2 51850   0.0396 175.3212 0000470 136.2050  91.6758  1.00271493  4858"
      },
      "geometry": {
        "type": "Point",
        "coordinates": [
          163.12619386680015,
          0.016377347905956654
        ]
      }
    },
    {
      "type": "Feature",
      "properties": {
        "norad_id": 54234,
        "name": "NOAA 21 (JPSS-2)",
        "group": "weather",
        "lat": 51.43328564284069,
        "lon": -74.42867750437506,
        "alt_km": 821.3142571170756,
        "timestamp": "2025-12-26T13:39:18.603675+00:00",
        "meta_object_name": "NOAA 21 (JPSS-2)",
        "meta_object_id": "2022-150A",
        "meta_epoch": "2025-12-26T04:57:05.420736",
        "meta_mean_motion": 14.19527818,
        "meta_eccentricity": 0.00015916,
        "meta_inclination": 98.7479,
        "meta_ra_of_asc_node": 296.3476,
        "meta_arg_of_pericenter": 10.0165,
        "meta_mean_anomaly": 350.1043,
        "meta_ephemeris_type": 0,
        "meta_classification_type": "U",
        "meta_norad_cat_id": 54234,
        "meta_element_set_no": 999,
        "meta_rev_at_epoch": 16200,
        "meta_bstar": 7.1886864e-05,
        "meta_mean_motion_dot": 1.08e-06,
        "meta_mean_motion_ddot": 0,
        "tle_line1": "1 54234U 22150A   25360.20631274  .00000108  00000+0  71887-4 0  9992",
        "tle_line2": "2 54234  98.7479 296.3476 0001591  10.0165 350.1043 14.19527818162001"
      },
      "geometry": {
        "type": "Point",
        "coordinates": [
          -74.42867750437506,
          51.43328564284069
        ]
      }
    },
    {
      "type": "Feature",
      "properties": {
        "norad_id": 54743,
        "name": "METEOSAT-12 (MTG-I1)",
        "group": "weather",
        "lat": -0.7171699641446416,
        "lon": -60.181841292571505,
        "alt_km": 35780.29586968695,
        "timestamp": "2025-12-26T13:39:18.603687+00:00",
        "meta_object_name": "METEOSAT-12 (MTG-I1)",
        "meta_object_id": "2022-170C",
        "meta_epoch": "2025-12-26T04:28:15.278016",
        "meta_mean_motion": 1.00270913,
        "meta_eccentricity": 0.00017027,
        "meta_inclination": 0.7008,
        "meta_ra_of_asc_node": 25.8252,
        "meta_arg_of_pericenter": 241.9136,
        "meta_mean_anomaly": 253.9358,
        "meta_ephemeris_type": 0,
        "meta_classification_type": "U",
        "meta_norad_cat_id": 54743,
        "meta_element_set_no": 999,
        "meta_rev_at_epoch": 1124,
        "meta_bstar": 0,
        "meta_mean_motion_dot": 1.4e-07,
        "meta_mean_motion_ddot": 0,
        "tle_line1": "1 54743U 22170C   25360.18628794  .00000014  00000+0  00000+0 0  9999",
        "tle_line2": "2 54743   0.7008  25.8252 0001702 241.9136 253.9358  1.00270913 11246"
      },
      "geometry": {
        "type": "Point",
        "coordinates": [
          -60.181841292571505,
          -0.7171699641446416
        ]
      }
    }
  ]
}